GLOBALSTAR M001         
1 25162U 98008A   24230.91935919 -.00000034  00000+0  48124-3 0  9997
2 25162  52.0026 135.8978 0001878 350.1406  89.8373 12.38191520206140
GLOBALSTAR M004         
1 25163U 98008B   24231.22927851 -.00000031  00000+0  40347-3 0  9995
2 25163  51.9980 258.3887 0002795 340.2041  95.9666 12.63368445223492
GLOBALSTAR M002         
1 25164U 98008C   24230.29594008 -.00000041  00000+0  69509-3 0  9998
2 25164  52.0008 282.1617 0001075 304.8567  55.2151 11.61502824148752
GLOBALSTAR M003         
1 25165U 98008D   24230.58619251  .00000071  00000+0  17102-2 0  9992
2 25165  51.9917 289.3695 0007976  46.3481 120.8882 12.12028252196404
GLOBALSTAR M014         
1 25306U 98023A   24230.36763646 -.00000062  00000+0  29468-3 0  9990
2 25306  51.9805 211.5898 0000693 160.7549 348.2140 11.65470320155743
GLOBALSTAR M006         
1 25307U 98023B   24231.20019312 -.00000041  00000+0  69936-3 0  9990
2 25307  51.9907 250.6368 0003767 276.7390 159.9269 11.58164794181835
GLOBALSTAR M015         
1 25308U 98023C   24230.68176925 -.00000067  00000+0  14106-3 0  9993
2 25308  51.9856 336.4886 0012241 254.4574 253.8237 11.48848876159193
GLOBALSTAR M008         
1 25309U 98023D   24230.77235156 -.00000078  00000+0  14430-3 0  9998
2 25309  51.9995 357.7179 0001908 245.8271 268.7913 12.36046572200324
